{
  "norad_id": 68301,
  "name": "STARLINK-37099",
  "history": [
    {
      "epoch": "2026-03-28T20:00:01.999872",
      "apogee_km": 268.604641580454,
      "perigee_km": 267.10876131813257,
      "latitude_deg": -52.667026830759305,
      "longitude_deg": 10.102222080109641,
      "semi_major_axis_km": 6645.993701449293,
      "eccentricity": 0.00011254,
      "inclination_deg": 97.2804,
      "raan_deg": 210.9559,
      "arg_perigee_deg": 73.0742,
      "mean_anomaly_deg": 162.2684,
      "mean_motion_rev_day": 16.02370253
    },
    {
      "epoch": "2026-03-29T04:00:01.999584",
      "apogee_km": 270.8433202122296,
      "perigee_km": 269.2570627483419,
      "latitude_deg": 23.621201034558645,
      "longitude_deg": 42.102221759967506,
      "semi_major_axis_km": 6648.187191480286,
      "eccentricity": 0.0001193,
      "inclination_deg": 97.2799,
      "raan_deg": 211.3212,
      "arg_perigee_deg": 57.5873,
      "mean_anomaly_deg": 298.8531,
      "mean_motion_rev_day": 16.01577294
    }
  ]
}